[{"OBJECT_NAME":"NUSTAR","OBJECT_ID":"2012-031A","EPOCH":"2026-03-10T00:00:02.999808","MEAN_MOTION":15.07728841,"ECCENTRICITY":0.00071224,"INCLINATION":6.0266,"RA_OF_ASC_NODE":57.5732,"ARG_OF_PERICENTER":70.6924,"MEAN_ANOMALY":331.0724,"EPHEMERIS_TYPE":0,"CLASSIFICATION_TYPE":"U","NORAD_CAT_ID":38358,"ELEMENT_SET_NO":999,"REV_AT_EPOCH":130,"BSTAR":0.0011080621,"MEAN_MOTION_DOT":0.00018332,"MEAN_MOTION_DDOT":0},{"OBJECT_NAME":"STARLINK-3868","OBJECT_ID":"2022-052BD","EPOCH":"2026-03-09T18:15:22.008096","MEAN_MOTION":15.08836652,"ECCENTRICITY":0.0001388,"INCLINATION":53.2167,"RA_OF_ASC_NODE":258.6561,"ARG_OF_PERICENTER":102.556,"MEAN_ANOMALY":257.5587,"EPHEMERIS_TYPE":0,"CLASSIFICATION_TYPE":"U","NORAD_CAT_ID":52649,"ELEMENT_SET_NO":999,"REV_AT_EPOCH":21115,"BSTAR":3.5229678e-5,"MEAN_MOTION_DOT":2.73e-6,"MEAN_MOTION_DDOT":0}]
